{
  "norad_id": 48149,
  "name": "STARLINK-2492",
  "history": [
    {
      "epoch": "2026-05-06T16:59:52.533024Z",
      "apogee_km": 478.73831347500163,
      "perigee_km": 476.70075291333615,
      "latitude_deg": -1.1418405519558864e-05,
      "longitude_deg": 123.42430119583295,
      "height_km": 478.38677180008887,
      "semi_major_axis_km": 6855.856533194169,
      "eccentricity": 0.0001486,
      "inclination_deg": 53.1568,
      "raan_deg": 242.9582,
      "arg_perigee_deg": 76.9567,
      "mean_anomaly_deg": 283.1599,
      "mean_motion_rev_day": 15.29361597
    },
    {
      "epoch": "2026-05-07T16:30:45.135360Z",
      "apogee_km": 476.93090363189276,
      "perigee_km": 475.28177268473155,
      "latitude_deg": 7.792494207950774e-05,
      "longitude_deg": 125.18777708500002,
      "height_km": 477.25340571514243,
      "semi_major_axis_km": 6854.243338158311,
      "eccentricity": 0.0001203,
      "inclination_deg": 53.1577,
      "raan_deg": 238.4065,
      "arg_perigee_deg": 107.5913,
      "mean_anomaly_deg": 252.522,
      "mean_motion_rev_day": 15.29901548
    }
  ]
}